[{"OBJECT_NAME":"PRAETORIAN SDA_611","OBJECT_ID":"2025-203K","EPOCH":"2026-03-09T12:43:32.643552","MEAN_MOTION":13.83296236,"ECCENTRICITY":0.00068676,"INCLINATION":81.297,"RA_OF_ASC_NODE":103.1149,"ARG_OF_PERICENTER":110.8784,"MEAN_ANOMALY":249.3108,"EPHEMERIS_TYPE":0,"CLASSIFICATION_TYPE":"U","NORAD_CAT_ID":65574,"ELEMENT_SET_NO":999,"REV_AT_EPOCH":2490,"BSTAR":0.00026081524,"MEAN_MOTION_DOT":2.98e-6,"MEAN_MOTION_DDOT":0},{"OBJECT_NAME":"COSMOS 883","OBJECT_ID":"1976-122A","EPOCH":"2026-03-09T20:26:23.697888","MEAN_MOTION":13.76350689,"ECCENTRICITY":0.00353188,"INCLINATION":82.9571,"RA_OF_ASC_NODE":338.3409,"ARG_OF_PERICENTER":130.8674,"MEAN_ANOMALY":229.5553,"EPHEMERIS_TYPE":0,"CLASSIFICATION_TYPE":"U","NORAD_CAT_ID":9610,"ELEMENT_SET_NO":999,"REV_AT_EPOCH":47130,"BSTAR":7.42971e-5,"MEAN_MOTION_DOT":8.8e-7,"MEAN_MOTION_DDOT":0}]
